{
  "type": "FeatureCollection",
  "features": [
    {
      "type": "Feature",
      "properties": {
        "norad_id": 44333,
        "name": "AT&T T-16",
        "group": "intelsat",
        "lat": 0.019807026973286856,
        "lon": -170.74689262401387,
        "alt_km": 35779.77503049197,
        "timestamp": "2025-12-27T12:55:14.155201+00:00",
        "meta_object_name": "AT&T T-16",
        "meta_object_id": "2019-034A",
        "meta_epoch": "2025-12-26T09:24:01.437984",
        "meta_mean_motion": 1.00280007,
        "meta_eccentricity": 9.59e-05,
        "meta_inclination": 0.0209,
        "meta_ra_of_asc_node": 69.0211,
        "meta_arg_of_pericenter": 116.5883,
        "meta_mean_anomaly": 309.683,
        "meta_ephemeris_type": 0,
        "meta_classification_type": "U",
        "meta_norad_cat_id": 44333,
        "meta_element_set_no": 999,
        "meta_rev_at_epoch": 2390,
        "meta_bstar": 0,
        "meta_mean_motion_dot": -9.5e-07,
        "meta_mean_motion_ddot": 0,
        "tle_line1": "1 44333U 19034A   25360.39168331 -.00000095  00000+0  00000+0 0  9997",
        "tle_line2": "2 44333   0.0209  69.0211 0000959 116.5883 309.6830  1.00280007 23905"
      },
      "geometry": {
        "type": "Point",
        "coordinates": [
          -170.74689262401387,
          0.019807026973286856
        ]
      }
    },
    {
      "type": "Feature",
      "properties": {
        "norad_id": 44476,
        "name": "INTELSAT 39 (IS-39)",
        "group": "intelsat",
        "lat": -0.011966970565119375,
        "lon": -7.997659568980355,
        "alt_km": 35790.15714414787,
        "timestamp": "2025-12-27T12:55:14.155213+00:00",
        "meta_object_name": "INTELSAT 39 (IS-39)",
        "meta_object_id": "2019-049B",
        "meta_epoch": "2025-12-27T04:44:07.817280",
        "meta_mean_motion": 1.00270152,
        "meta_eccentricity": 8.904e-05,
        "meta_inclination": 0.0212,
        "meta_ra_of_asc_node": 10.5992,
        "meta_arg_of_pericenter": 147.824,
        "meta_mean_anomaly": 70.4783,
        "meta_ephemeris_type": 0,
        "meta_classification_type": "U",
        "meta_norad_cat_id": 44476,
        "meta_element_set_no": 999,
        "meta_rev_at_epoch": 2340,
        "meta_bstar": 0,
        "meta_mean_motion_dot": 0,
        "meta_mean_motion_ddot": 0,
        "tle_line1": "1 44476U 19049B   25361.19731270  .00000000  00000+0  00000+0 0  9993",
        "tle_line2": "2 44476   0.0212  10.5992 0000890 147.8240  70.4783  1.00270152 23407"
      },
      "geometry": {
        "type": "Point",
        "coordinates": [
          -7.997659568980355,
          -0.011966970565119375
        ]
      }
    },
    {
      "type": "Feature",
      "properties": {
        "norad_id": 46114,
        "name": "GALAXY 30 (G-30)",
        "group": "intelsat",
        "lat": 0.007686687819075613,
        "lon": 165.0390153640209,
        "alt_km": 35789.84937193569,
        "timestamp": "2025-12-27T12:55:14.155224+00:00",
        "meta_object_name": "GALAXY 30 (G-30)",
        "meta_object_id": "2020-056C",
        "meta_epoch": "2025-12-27T05:33:33.081696",
        "meta_mean_motion": 1.00271208,
        "meta_eccentricity": 0.00023563,
        "meta_inclination": 0.0135,
        "meta_ra_of_asc_node": 354.4997,
        "meta_arg_of_pericenter": 281.8756,
        "meta_mean_anomaly": 137.9735,
        "meta_ephemeris_type": 0,
        "meta_classification_type": "U",
        "meta_norad_cat_id": 46114,
        "meta_element_set_no": 999,
        "meta_rev_at_epoch": 1956,
        "meta_bstar": 0,
        "meta_mean_motion_dot": 5.9e-07,
        "meta_mean_motion_ddot": 0,
        "tle_line1": "1 46114U 20056C   25361.23163289  .00000059  00000+0  00000+0 0  9992",
        "tle_line2": "2 46114   0.0135 354.4997 0002356 281.8756 137.9735  1.00271208 19568"
      },
      "geometry": {
        "type": "Point",
        "coordinates": [
          165.0390153640209,
          0.007686687819075613
        ]
      }
    },
    {
      "type": "Feature",
      "properties": {
        "norad_id": 54026,
        "name": "GALAXY 33 (G-33)",
        "group": "intelsat",
        "lat": 0.012453265201659628,
        "lon": 157.0495614311244,
        "alt_km": 35789.44183261118,
        "timestamp": "2025-12-27T12:55:14.155236+00:00",
        "meta_object_name": "GALAXY 33 (G-33)",
        "meta_object_id": "2022-128A",
        "meta_epoch": "2025-12-27T05:31:18.296832",
        "meta_mean_motion": 1.00271483,
        "meta_eccentricity": 0.00018397,
        "meta_inclination": 0.0165,
        "meta_ra_of_asc_node": 353.3938,
        "meta_arg_of_pericenter": 278.7441,
        "meta_mean_anomaly": 133.6519,
        "meta_ephemeris_type": 0,
        "meta_classification_type": "U",
        "meta_norad_cat_id": 54026,
        "meta_element_set_no": 999,
        "meta_rev_at_epoch": 1201,
        "meta_bstar": 0,
        "meta_mean_motion_dot": 1.01e-06,
        "meta_mean_motion_ddot": 0,
        "tle_line1": "1 54026U 22128A   25361.23007288  .00000101  00000+0  00000+0 0  9999",
        "tle_line2": "2 54026   0.0165 353.3938 0001839 278.7441 133.6519  1.00271483 12017"
      },
      "geometry": {
        "type": "Point",
        "coordinates": [
          157.0495614311244,
          0.012453265201659628
        ]
      }
    },
    {
      "type": "Feature",
      "properties": {
        "norad_id": 54027,
        "name": "GALAXY 34 (G-34)",
        "group": "intelsat",
        "lat": 0.02384476248141397,
        "lon": 161.0933954932113,
        "alt_km": 35788.86931791229,
        "timestamp": "2025-12-27T12:55:14.155248+00:00",
        "meta_object_name": "GALAXY 34 (G-34)",
        "meta_object_id": "2022-128B",
        "meta_epoch": "2025-12-27T05:32:25.689696",
        "meta_mean_motion": 1.00270577,
        "meta_eccentricity": 0.00017706,
        "meta_inclination": 0.0234,
        "meta_ra_of_asc_node": 19.671,
        "meta_arg_of_pericenter": 250.6746,
        "meta_mean_anomaly": 139.7706,
        "meta_ephemeris_type": 0,
        "meta_classification_type": "U",
        "meta_norad_cat_id": 54027,
        "meta_element_set_no": 999,
        "meta_rev_at_epoch": 1218,
        "meta_bstar": 0,
        "meta_mean_motion_dot": 0,
        "meta_mean_motion_ddot": 0,
        "tle_line1": "1 54027U 22128B   25361.23085289  .00000000  00000+0  00000+0 0  9995",
        "tle_line2": "2 54027   0.0234  19.6710 0001770 250.6746 139.7706  1.00270577 12182"
      },
      "geometry": {
        "type": "Point",
        "coordinates": [
          161.0933954932113,
          0.02384476248141397
        ]
      }
    },
    {
      "type": "Feature",
      "properties": {
        "norad_id": 54243,
        "name": "GALAXY 31 (G-31)",
        "group": "intelsat",
        "lat": 0.013320177556471193,
        "lon": 169.04627464751627,
        "alt_km": 35789.688509795706,
        "timestamp": "2025-12-27T12:55:14.155260+00:00",
        "meta_object_name": "GALAXY 31 (G-31)",
        "meta_object_id": "2022-153A",
        "meta_epoch": "2025-12-27T05:34:40.475424",
        "meta_mean_motion": 1.00271303,
        "meta_eccentricity": 0.0001821,
        "meta_inclination": 0.0066,
        "meta_ra_of_asc_node": 38.5531,
        "meta_arg_of_pericenter": 247.4947,
        "meta_mean_anomaly": 132.5831,
        "meta_ephemeris_type": 0,
        "meta_classification_type": "U",
        "meta_norad_cat_id": 54243,
        "meta_element_set_no": 999,
        "meta_rev_at_epoch": 540,
        "meta_bstar": 0,
        "meta_mean_motion_dot": 3.6e-07,
        "meta_mean_motion_ddot": 0,
        "tle_line1": "1 54243U 22153A   25361.23241291  .00000036  00000+0  00000+0 0  9999",
        "tle_line2": "2 54243   0.0066  38.5531 0001821 247.4947 132.5831  1.00271303  5405"
      },
      "geometry": {
        "type": "Point",
        "coordinates": [
          169.04627464751627,
          0.013320177556471193
        ]
      }
    },
    {
      "type": "Feature",
      "properties": {
        "norad_id": 54244,
        "name": "GALAXY 32 (G-32)",
        "group": "intelsat",
        "lat": 5.087417850714325e-06,
        "lon": -160.948080845985,
        "alt_km": 35789.880809389884,
        "timestamp": "2025-12-27T12:55:14.155272+00:00",
        "meta_object_name": "GALAXY 32 (G-32)",
        "meta_object_id": "2022-153B",
        "meta_epoch": "2025-12-27T05:43:17.150016",
        "meta_mean_motion": 1.00271625,
        "meta_eccentricity": 0.00020999,
        "meta_inclination": 0.0101,
        "meta_ra_of_asc_node": 27.3802,
        "meta_arg_of_pericenter": 286.8515,
        "meta_mean_anomaly": 136.5664,
        "meta_ephemeris_type": 0,
        "meta_classification_type": "U",
        "meta_norad_cat_id": 54244,
        "meta_element_set_no": 999,
        "meta_rev_at_epoch": 1142,
        "meta_bstar": 0,
        "meta_mean_motion_dot": -1.52e-06,
        "meta_mean_motion_ddot": 0,
        "tle_line1": "1 54244U 22153B   25361.23839294 -.00000152  00000+0  00000+0 0  9996",
        "tle_line2": "2 54244   0.0101  27.3802 0002099 286.8515 136.5664  1.00271625 11423"
      },
      "geometry": {
        "type": "Point",
        "coordinates": [
          -160.948080845985,
          5.087417850714325e-06
        ]
      }
    }
  ]
}